{
  "norad_id": 57715,
  "name": "STARLINK-30300",
  "history": [
    {
      "epoch": "2026-03-28T03:20:07.911744Z",
      "apogee_km": 483.8331718123891,
      "perigee_km": 482.23740036209074,
      "latitude_deg": -3.425840306838252e-05,
      "longitude_deg": 138.1554768460654,
      "height_km": 482.84616732061073,
      "semi_major_axis_km": 6861.17228608724,
      "eccentricity": 0.00011629,
      "inclination_deg": 43.002,
      "raan_deg": 13.7522,
      "arg_perigee_deg": 267.5463,
      "mean_anomaly_deg": 92.5255,
      "mean_motion_rev_day": 15.27584612
    },
    {
      "epoch": "2026-03-29T01:18:19.199232Z",
      "apogee_km": 483.9255885478942,
      "perigee_km": 482.1156151725245,
      "latitude_deg": 1.661262842190361e-05,
      "longitude_deg": 162.53693187501733,
      "height_km": 482.8516820025192,
      "semi_major_axis_km": 6861.157601860209,
      "eccentricity": 0.0001319,
      "inclination_deg": 43.0014,
      "raan_deg": 8.5829,
      "arg_perigee_deg": 266.56,
      "mean_anomaly_deg": 93.5101,
      "mean_motion_rev_day": 15.27589516
    },
    {
      "epoch": "2026-03-30T02:24:49.222080Z",
      "apogee_km": 484.1990251265852,
      "perigee_km": 481.9312605943269,
      "latitude_deg": 1.5116185701697715e-05,
      "longitude_deg": 138.9707728066956,
      "height_km": 483.0879507108598,
      "semi_major_axis_km": 6861.202142860456,
      "eccentricity": 0.00016526,
      "inclination_deg": 43.0003,
      "raan_deg": 2.673,
      "arg_perigee_deg": 257.4732,
      "mean_anomaly_deg": 102.5935,
      "mean_motion_rev_day": 15.27574641
    },
    {
      "epoch": "2026-03-31T03:31:19.541280Z",
      "apogee_km": 484.15320143141435,
      "perigee_km": 481.94211606328645,
      "latitude_deg": 3.487388259088952e-05,
      "longitude_deg": 115.40549887072734,
      "height_km": 483.00539135515277,
      "semi_major_axis_km": 6861.18465874735,
      "eccentricity": 0.00016113,
      "inclination_deg": 43.0011,
      "raan_deg": 356.7652,
      "arg_perigee_deg": 260.5885,
      "mean_anomaly_deg": 99.4785,
      "mean_motion_rev_day": 15.2758048
    },
    {
      "epoch": "2026-04-01T03:03:41.702400Z",
      "apogee_km": 484.23898155826464,
      "perigee_km": 481.9552883887809,
      "latitude_deg": -2.6183658705826645e-06,
      "longitude_deg": 115.80828977418537,
      "height_km": 482.9957571394216,
      "semi_major_axis_km": 6861.2341349735225,
      "eccentricity": 0.00016642,
      "inclination_deg": 43.003,
      "raan_deg": 351.2271,
      "arg_perigee_deg": 263.8971,
      "mean_anomaly_deg": 96.1691,
      "mean_motion_rev_day": 15.27563957
    },
    {
      "epoch": "2026-04-02T16:43:26.173344Z",
      "apogee_km": 484.2422322532111,
      "perigee_km": 481.7859401643482,
      "latitude_deg": 2.436148681950842e-05,
      "longitude_deg": -99.53291337033963,
      "height_km": 482.5752312655334,
      "semi_major_axis_km": 6861.15108620878,
      "eccentricity": 0.000179,
      "inclination_deg": 43.0006,
      "raan_deg": 342.3679,
      "arg_perigee_deg": 280.1268,
      "mean_anomaly_deg": 79.9382,
      "mean_motion_rev_day": 15.27591692
    },
    {
      "epoch": "2026-04-02T23:00:03.152448Z",
      "apogee_km": 484.14950717714237,
      "perigee_km": 481.8124731673306,
      "latitude_deg": 2.1034720299305636e-05,
      "longitude_deg": 164.57771895479343,
      "height_km": 482.62482067397866,
      "semi_major_axis_km": 6861.117990172236,
      "eccentricity": 0.00017031,
      "inclination_deg": 43.0003,
      "raan_deg": 340.8904,
      "arg_perigee_deg": 276.5432,
      "mean_anomaly_deg": 83.5226,
      "mean_motion_rev_day": 15.27602745
    },
    {
      "epoch": "2026-04-03T16:15:45.637056Z",
      "apogee_km": 483.8848919553484,
      "perigee_km": 482.1064863623187,
      "latitude_deg": 1.2584393655893805e-05,
      "longitude_deg": -99.12012626700394,
      "height_km": 482.90628567030063,
      "semi_major_axis_km": 6861.132689158833,
      "eccentricity": 0.0001296,
      "inclination_deg": 43.0002,
      "raan_deg": 336.8285,
      "arg_perigee_deg": 261.3331,
      "mean_anomaly_deg": 98.7374,
      "mean_motion_rev_day": 15.27597836
    },
    {
      "epoch": "2026-04-04T17:22:16.998240Z",
      "apogee_km": 484.37211602090974,
      "perigee_km": 481.7826937045138,
      "latitude_deg": 7.0150836001372284e-06,
      "longitude_deg": -122.69108265653539,
      "height_km": 482.9417196719302,
      "semi_major_axis_km": 6861.2144048627115,
      "eccentricity": 0.0001887,
      "inclination_deg": 43.0022,
      "raan_deg": 330.9194,
      "arg_perigee_deg": 266.1472,
      "mean_anomaly_deg": 93.9164,
      "mean_motion_rev_day": 15.27570546
    },
    {
      "epoch": "2026-04-04T23:38:54.449088Z",
      "apogee_km": 484.31179521145805,
      "perigee_km": 481.7587530082619,
      "latitude_deg": 2.6744847487731106e-05,
      "longitude_deg": 141.41790284244686,
      "height_km": 482.99307444797324,
      "semi_major_axis_km": 6861.17227410986,
      "eccentricity": 0.00018605,
      "inclination_deg": 43.0021,
      "raan_deg": 329.4422,
      "arg_perigee_deg": 261.8693,
      "mean_anomaly_deg": 98.1948,
      "mean_motion_rev_day": 15.27584616
    }
  ]
}